HELIOS 1B               
1 25977U 99064A   20104.42537186  .00000034  00000-0  11373-4 0  9997
2 25977  98.2717 257.0740 0001682 142.0195 218.1136 14.82470515 96789
TERRA                   
1 25994U 99068A   20104.20925627  .00000084  00000-0  28728-4 0  9994
2 25994  98.2150 179.3902 0001120  99.7529 260.3807 14.57124082 80819
SL-16 R/B               
1 26070U 00006B   20103.93915592 -.00000161  00000-0 -57630-4 0  9995
2 26070  71.0011 310.9247 0018333 228.9996 130.9542 14.15464064 43361
TITAN 4B R/B            
1 26474U 00047B   20104.46351151  .00000059  00000-0  16116-4 0  9990
2 26474  67.9931 254.5791 0060953 269.0593  90.3565 14.95935966 69606
ENVISAT                 
1 27386U 02009A   20103.94585042  .00000002  00000-0  14072-4 0  9990
2 27386  98.1388 114.4331 0001410  89.5734 327.5421 14.37977037949200
IDEFIX & ARIANE 42P R/B 
1 27422U 02021B   20103.51073005  .00000001  00000-0  16472-4 0  9994
2 27422  98.3445  67.3330 0013413  67.7513 292.5091 14.29285227933853
AQUA                    
1 27424U 02022A   20104.03644976  .00000096  00000-0  31449-4 0  9991
2 27424  98.2043  45.6260 0001643 137.1143 294.9098 14.57114015954349
CZ-4B R/B               
1 27432U 02024C   20103.76953735 -.00000036  00000-0  54548-5 0  9998
2 27432  99.0884 104.8474 0050517   2.8441 170.1710 14.14091357924369
MIDORI II (ADEOS-II)    
1 27597U 02056A   20103.85769024  .00000045  00000-0  35637-4 0  9997
2 27597  98.5138  53.1147 0001390 127.4641 232.6666 14.27440759902459
H-2A R/B                
1 27601U 02056E   20103.57441042  .00000031  00000-0  25591-4 0  9992
2 27601  98.2343 142.7093 0073348 113.5885   1.5686 14.31944328905266
CZ-4B R/B               
1 28059U 03049C   20104.22925301  .00000016  00000-0  15611-4 0  9996
2 28059  98.4873  20.0193 0049746 339.3749  20.5438 14.52594881873364
CZ-2C R/B               
1 28222U 04012C   20104.06055378  .00000497  00000-0  33745-4 0  9990
2 28222  97.6705  66.4567 0045592 253.4707 168.8611 15.10345610876164
SL-16 R/B               
1 28353U 04021B   20103.99312187 -.00000290  00000-0 -12708-3 0  9998
2 28353  71.0002  76.6138 0002708  59.1226 301.0163 14.14230282817889
CZ-4B R/B               
1 28415U 04035C   20104.09285763 -.00000270  00000-0 -13218-4 0  9999
2 28415  97.6217 146.3590 0050694 213.7565 146.0431 15.06831154853790
CZ-2C R/B               
1 28480U 04046B   20104.07613595 -.00000046  00000-0 -28009-5 0  9995
2 28480  98.0867 144.0621 0142987  58.9790 353.2962 14.25720021801125
ARIANE 5 R/B            
1 28499U 04049H   20104.33083562  .00000055  00000-0  14015-4 0  9991
2 28499  98.0497 205.9181 0093375 123.3706 273.9034 14.80019514826508
CZ-2D R/B               
1 28738U 05024B   20104.12886113  .00000295  00000-0  20823-4 0  9991
2 28738  97.3887 128.8486 0013282  54.5905 305.6564 15.11998245811535
SUZAKU (ASTRO-EII)      
1 28773U 05025A   20104.23319104  .00000855  00000-0  37318-4 0  9993
2 28773  31.3823  80.7290 0004597 270.0313  89.9808 15.17483751814047
ALOS (DAICHI)           
1 28931U 06002A   20104.56544788  .00000079  00000-0  24125-4 0  9999
2 28931  97.8417  93.4898 0000885  39.1292 320.9970 14.62697756758215
H-2A R/B                
1 28932U 06002B   20103.93448340  .00000274  00000-0  31381-4 0  9996
2 28932  98.3189  90.2902 0088834 175.0246 238.4037 14.92184756771371
AKARI (ASTRO-F)         
1 28939U 06005A   20103.89739071  .00001757  00000-0  49388-4 0  9998
2 28939  98.2270  70.5117 0093786 192.6569 167.2316 15.33968517770865
RESURS-DK 1             
1 29228U 06021A   20104.43971633  .00000061  00000-0  11942-4 0  9993
2 29228  69.9371 353.5071 0006497 227.2952 132.7662 15.02527514762980
GENESIS 1               
1 29252U 06029A   20103.86454680  .00000135  00000-0  16669-4 0  9995
2 29252  64.5210 156.1000 0018917 179.9528 180.1600 15.18079297758229
CZ-4B R/B               
1 29507U 06046C   20104.01083521  .00000895  00000-0  74195-4 0  9998
2 29507  97.7525 126.0324 0048550  24.8846 335.4703 15.00560603735558
CZ-2C R/B               
1 31114U 07010B   20104.44828256  .00000020  00000-0  27479-4 0  9999
2 31114  98.2701 321.6619 0060914  96.4943 264.3175 14.19316296673806
COSMO-SKYMED 1          
1 31598U 07023A   20104.53273539 -.00000039  00000-0  16755-5 0  9994
2 31598  97.8896 288.6409 0001481  91.7487 268.3942 14.82156396695214
GENESIS 2               
1 31789U 07028A   20103.45157988  .00000259  00000-0  23145-4 0  9993
2 31789  64.5034 198.9013 0049120 252.7320 106.8424 15.17213846705162
COSMOS 2428             
1 31792U 07029A   20104.19481183 -.00000246  00000-0 -10730-3 0  9990
2 31792  70.9212  49.9987 0006743 175.4856 184.6326 14.12365955659569
SL-16 R/B               
1 31793U 07029B   20104.22073786 -.00000302  00000-0 -13279-3 0  9995
2 31793  70.9783  23.3904 0002436 279.5932 186.4181 14.14427141660462
KORONAS-FOTON           
1 33504U 09003A   20104.07427529  .00000198  00000-0  86554-5 0  9991
2 33504  82.4389 287.8722 0020071 141.7588 218.5072 15.15604158617589
H-2A R/B                
1 38341U 12025E   20104.18126826  .00000169  00000-0  27240-4 0  9995
2 38341  98.4906 255.0069 0056787  82.0086 278.7565 14.84010905427770
CUSAT 2 & FALCON 9 R/B  
1 39271U 13055G   20104.15430696  .00006304  00000-0  15163-3 0  9999
2 39271  80.9671 337.2217 0591254   6.6148 354.2412 14.47457621341281
SL-4 R/B                
1 39679U 14021B   20103.90123243  .00000314  00000-0  33584-4 0  9997
2 39679  51.6164  51.6193 0172611  78.6574 283.3734 15.06348976329147
ALOS-2                  
1 39766U 14029A   20104.51597303  .00000172  00000-0  29848-4 0  9992
2 39766  97.9194 202.0454 0001555  87.8744 272.2651 14.79473109318094
SL-27 R/B               
1 40354U 14084B   20104.24311811  .00000674  00000-0  17750-4 0  9992
2 40354  74.7378 162.9982 0037234  22.7910 337.4944 15.40127960298098
YAOGAN 29               
1 41038U 15069A   20104.35128682  .00000002  00000-0  72370-5 0  9995
2 41038  98.0067  92.4445 0002238  91.1751 268.9722 14.80442597236646
ASTRO-H (HITOMI)        
1 41337U 16012A   20104.06038979  .00000243  00000-0  12802-4 0  9993
2 41337  31.0061  64.3744 0012399 145.4114 214.7330 14.98669313227688
SHENZHOU-11 MODULE      
1 41868U 16061G   20104.18449580  .00042298  89495-5  12494-3 0  9995
2 41868  42.7883 187.9459 0011590  29.7947  58.3322 15.92670600195642
HXMT (HUIYAN)           
1 42758U 17034A   20104.33037449  .00000205  00000-0  26555-4 0  9995
2 42758  43.0191  33.2428 0011944 333.4470 173.0384 15.08796309156030
CZ-2C R/B               
1 43521U 18054D   20103.79924466  .00000532  00000-0  30770-4 0  9997
2 43521  35.1535 224.5633 0083659 258.7605 100.3697 15.10958513 99213
AEOLUS                  
1 43600U 18066A   20104.08824071  .00025936  00000-0  10300-3 0  9993
2 43600  96.7220 111.4623 0006225 109.2953 250.8993 15.86652533 95007
SAOCOM 1A               
1 43641U 18076A   20104.47342399  .00000005  00000-0  71462-5 0  9998
2 43641  97.8887 291.5150 0001406  82.4532 277.6856 14.82151275 81977
CREW DRAGON DEMO-1 DEB  
1 44064U 19011B   20103.98553826  .00013767  00000-0  15145-3 0  9995
2 44064  51.6401 283.8296 0003920 162.9033 197.2070 15.63471749 62666
